{
  "type": "FeatureCollection",
  "features": [
    {
      "type": "Feature",
      "properties": {
        "norad_id": 64902,
        "name": "CO3D 2",
        "group": "resource",
        "lat": -70.90151980506691,
        "lon": 78.9881703192065,
        "alt_km": 513.1072118402972,
        "timestamp": "2025-12-06T11:28:10.687291+00:00",
        "meta_object_name": "CO3D 2",
        "meta_object_id": "2025-156D",
        "meta_epoch": "2025-12-05T21:34:11.594784",
        "meta_mean_motion": 15.20206227,
        "meta_eccentricity": 8.478e-05,
        "meta_inclination": 97.4344,
        "meta_ra_of_asc_node": 56.2618,
        "meta_arg_of_pericenter": 104.2207,
        "meta_mean_anomaly": 255.9122,
        "meta_ephemeris_type": 0,
        "meta_classification_type": "U",
        "meta_norad_cat_id": 64902,
        "meta_element_set_no": 999,
        "meta_rev_at_epoch": 2016,
        "meta_bstar": 2.7929626e-05,
        "meta_mean_motion_dot": 5.37e-06,
        "meta_mean_motion_ddot": 0,
        "tle_line1": "1 64902U 25156D   25339.89874531  .00000537  00000+0  27930-4 0  9996",
        "tle_line2": "2 64902  97.4344  56.2618 0000847 104.2207 255.9122 15.20206227 20169"
      },
      "geometry": {
        "type": "Point",
        "coordinates": [
          78.9881703192065,
          -70.90151980506691
        ]
      }
    },
    {
      "type": "Feature",
      "properties": {
        "norad_id": 64903,
        "name": "CO3D 1",
        "group": "resource",
        "lat": -71.66453581303836,
        "lon": 80.03892416733851,
        "alt_km": 513.2158124000343,
        "timestamp": "2025-12-06T11:28:10.687302+00:00",
        "meta_object_name": "CO3D 1",
        "meta_object_id": "2025-156E",
        "meta_epoch": "2025-12-05T23:09:11.942784",
        "meta_mean_motion": 15.20206407,
        "meta_eccentricity": 0.00010018,
        "meta_inclination": 97.4346,
        "meta_ra_of_asc_node": 56.3278,
        "meta_arg_of_pericenter": 109.0047,
        "meta_mean_anomaly": 251.1297,
        "meta_ephemeris_type": 0,
        "meta_classification_type": "U",
        "meta_norad_cat_id": 64903,
        "meta_element_set_no": 999,
        "meta_rev_at_epoch": 2017,
        "meta_bstar": 0.00011797067,
        "meta_mean_motion_dot": 2.487e-05,
        "meta_mean_motion_ddot": 0,
        "tle_line1": "1 64903U 25156E   25339.96472156  .00002487  00000+0  11797-3 0  9991",
        "tle_line2": "2 64903  97.4346  56.3278 0001001 109.0047 251.1297 15.20206407 20175"
      },
      "geometry": {
        "type": "Point",
        "coordinates": [
          80.03892416733851,
          -71.66453581303836
        ]
      }
    },
    {
      "type": "Feature",
      "properties": {
        "norad_id": 66514,
        "name": "SENTINEL-6B",
        "group": "resource",
        "lat": -9.237129637791742,
        "lon": 171.33019134470482,
        "alt_km": 1319.7390075283756,
        "timestamp": "2025-12-06T11:28:10.687312+00:00",
        "meta_object_name": "SENTINEL-6B",
        "meta_object_id": "2025-264A",
        "meta_epoch": "2025-12-05T07:31:22.416096",
        "meta_mean_motion": 12.8587776,
        "meta_eccentricity": 0.00115487,
        "meta_inclination": 66.0393,
        "meta_ra_of_asc_node": 177.917,
        "meta_arg_of_pericenter": 268.403,
        "meta_mean_anomaly": 91.5665,
        "meta_ephemeris_type": 0,
        "meta_classification_type": "U",
        "meta_norad_cat_id": 66514,
        "meta_element_set_no": 999,
        "meta_rev_at_epoch": 233,
        "meta_bstar": 0.0002937849,
        "meta_mean_motion_dot": 1.1e-07,
        "meta_mean_motion_ddot": 0,
        "tle_line1": "1 66514U 25264A   25339.31345389  .00000011  00000+0  29378-3 0  9992",
        "tle_line2": "2 66514  66.0393 177.9170 0011548 268.4030  91.5665 12.85877760  2336"
      },
      "geometry": {
        "type": "Point",
        "coordinates": [
          171.33019134470482,
          -9.237129637791742
        ]
      }
    }
  ]
}